{
  "type": "FeatureCollection",
  "features": [
    {
      "type": "Feature",
      "properties": {
        "norad_id": 66822,
        "name": "STARLINK-35958",
        "group": "last-30-days",
        "lat": 8.564166300290943,
        "lon": 174.03026452695713,
        "alt_km": 411.2130418746401,
        "timestamp": "2025-12-22T18:58:52.139281+00:00",
        "meta_object_name": "STARLINK-35958",
        "meta_object_id": "2025-280B",
        "meta_epoch": "2025-12-22T06:00:02.000160",
        "meta_mean_motion": 15.52511886,
        "meta_eccentricity": 0.0003284,
        "meta_inclination": 69.9998,
        "meta_ra_of_asc_node": 172.3666,
        "meta_arg_of_pericenter": 270.463,
        "meta_mean_anomaly": 316.8079,
        "meta_ephemeris_type": 0,
        "meta_classification_type": "U",
        "meta_norad_cat_id": 66822,
        "meta_element_set_no": 999,
        "meta_rev_at_epoch": 442,
        "meta_bstar": -0.00077698812,
        "meta_mean_motion_dot": -0.00047671,
        "meta_mean_motion_ddot": 0,
        "tle_line1": "1 66822U 25280B   25356.25002315 -.00047671  00000+0 -77699-3 0  9997",
        "tle_line2": "2 66822  69.9998 172.3666 0003284 270.4630 316.8079 15.52511886  4422"
      },
      "geometry": {
        "type": "Point",
        "coordinates": [
          174.03026452695713,
          8.564166300290943
        ]
      }
    },
    {
      "type": "Feature",
      "properties": {
        "norad_id": 66823,
        "name": "STARLINK-35957",
        "group": "last-30-days",
        "lat": 10.382223967650205,
        "lon": 174.70856769947488,
        "alt_km": 410.98275988456044,
        "timestamp": "2025-12-22T18:58:52.139293+00:00",
        "meta_object_name": "STARLINK-35957",
        "meta_object_id": "2025-280C",
        "meta_epoch": "2025-12-22T06:00:02.000160",
        "meta_mean_motion": 15.52428614,
        "meta_eccentricity": 0.00034085,
        "meta_inclination": 69.9997,
        "meta_ra_of_asc_node": 172.3629,
        "meta_arg_of_pericenter": 267.4423,
        "meta_mean_anomaly": 321.7864,
        "meta_ephemeris_type": 0,
        "meta_classification_type": "U",
        "meta_norad_cat_id": 66823,
        "meta_element_set_no": 999,
        "meta_rev_at_epoch": 442,
        "meta_bstar": 0.0014006618,
        "meta_mean_motion_dot": 0.00086667,
        "meta_mean_motion_ddot": 0,
        "tle_line1": "1 66823U 25280C   25356.25002315  .00086667  00000+0  14007-2 0  9997",
        "tle_line2": "2 66823  69.9997 172.3629 0003408 267.4423 321.7864 15.52428614  4428"
      },
      "geometry": {
        "type": "Point",
        "coordinates": [
          174.70856769947488,
          10.382223967650205
        ]
      }
    },
    {
      "type": "Feature",
      "properties": {
        "norad_id": 66824,
        "name": "STARLINK-35896",
        "group": "last-30-days",
        "lat": 12.162463972398754,
        "lon": 175.38336683329518,
        "alt_km": 410.81478724156204,
        "timestamp": "2025-12-22T18:58:52.139303+00:00",
        "meta_object_name": "STARLINK-35896",
        "meta_object_id": "2025-280D",
        "meta_epoch": "2025-12-22T06:00:02.000160",
        "meta_mean_motion": 15.52513575,
        "meta_eccentricity": 0.00034612,
        "meta_inclination": 69.9998,
        "meta_ra_of_asc_node": 172.3617,
        "meta_arg_of_pericenter": 271.5849,
        "meta_mean_anomaly": 319.5209,
        "meta_ephemeris_type": 0,
        "meta_classification_type": "U",
        "meta_norad_cat_id": 66824,
        "meta_element_set_no": 999,
        "meta_rev_at_epoch": 442,
        "meta_bstar": -0.00083770592,
        "meta_mean_motion_dot": -0.00051364,
        "meta_mean_motion_ddot": 0,
        "tle_line1": "1 66824U 25280D   25356.25002315 -.00051364  00000+0 -83771-3 0  9991",
        "tle_line2": "2 66824  69.9998 172.3617 0003461 271.5849 319.5209 15.52513575  4423"
      },
      "geometry": {
        "type": "Point",
        "coordinates": [
          175.38336683329518,
          12.162463972398754
        ]
      }
    },
    {
      "type": "Feature",
      "properties": {
        "norad_id": 66825,
        "name": "STARLINK-35476",
        "group": "last-30-days",
        "lat": 13.959608066883876,
        "lon": 176.07312668783715,
        "alt_km": 410.6924494335526,
        "timestamp": "2025-12-22T18:58:52.139313+00:00",
        "meta_object_name": "STARLINK-35476",
        "meta_object_id": "2025-280E",
        "meta_epoch": "2025-12-22T06:00:02.000160",
        "meta_mean_motion": 15.52515174,
        "meta_eccentricity": 0.00032751,
        "meta_inclination": 69.9998,
        "meta_ra_of_asc_node": 172.3591,
        "meta_arg_of_pericenter": 268.8602,
        "meta_mean_anomaly": 324.1664,
        "meta_ephemeris_type": 0,
        "meta_classification_type": "U",
        "meta_norad_cat_id": 66825,
        "meta_element_set_no": 999,
        "meta_rev_at_epoch": 427,
        "meta_bstar": -0.0008817538,
        "meta_mean_motion_dot": -0.00054039,
        "meta_mean_motion_ddot": 0,
        "tle_line1": "1 66825U 25280E   25356.25002315 -.00054039  00000+0 -88175-3 0  9997",
        "tle_line2": "2 66825  69.9998 172.3591 0003275 268.8602 324.1664 15.52515174  4271"
      },
      "geometry": {
        "type": "Point",
        "coordinates": [
          176.07312668783715,
          13.959608066883876
        ]
      }
    },
    {
      "type": "Feature",
      "properties": {
        "norad_id": 66826,
        "name": "STARLINK-35898",
        "group": "last-30-days",
        "lat": 15.765682829757678,
        "lon": 176.77717888530844,
        "alt_km": 410.2482626603123,
        "timestamp": "2025-12-22T18:58:52.139323+00:00",
        "meta_object_name": "STARLINK-35898",
        "meta_object_id": "2025-280F",
        "meta_epoch": "2025-12-22T06:00:02.000160",
        "meta_mean_motion": 15.52430224,
        "meta_eccentricity": 0.00033723,
        "meta_inclination": 69.9999,
        "meta_ra_of_asc_node": 172.3556,
        "meta_arg_of_pericenter": 270.8381,
        "meta_mean_anomaly": 324.1359,
        "meta_ephemeris_type": 0,
        "meta_classification_type": "U",
        "meta_norad_cat_id": 66826,
        "meta_element_set_no": 999,
        "meta_rev_at_epoch": 442,
        "meta_bstar": 0.0013830565,
        "meta_mean_motion_dot": 0.00085568,
        "meta_mean_motion_ddot": 0,
        "tle_line1": "1 66826U 25280F   25356.25002315  .00085568  00000+0  13831-2 0  9993",
        "tle_line2": "2 66826  69.9999 172.3556 0003372 270.8381 324.1359 15.52430224  4429"
      },
      "geometry": {
        "type": "Point",
        "coordinates": [
          176.77717888530844,
          15.765682829757678
        ]
      }
    },
    {
      "type": "Feature",
      "properties": {
        "norad_id": 66827,
        "name": "STARLINK-35959",
        "group": "last-30-days",
        "lat": 17.541490251505067,
        "lon": 177.48483868982555,
        "alt_km": 410.13410196945006,
        "timestamp": "2025-12-22T18:58:52.139333+00:00",
        "meta_object_name": "STARLINK-35959",
        "meta_object_id": "2025-280G",
        "meta_epoch": "2025-12-22T06:00:02.000160",
        "meta_mean_motion": 15.5251885,
        "meta_eccentricity": 0.00031596,
        "meta_inclination": 69.9999,
        "meta_ra_of_asc_node": 172.3543,
        "meta_arg_of_pericenter": 272.2159,
        "meta_mean_anomaly": 324.6394,
        "meta_ephemeris_type": 0,
        "meta_classification_type": "U",
        "meta_norad_cat_id": 66827,
        "meta_element_set_no": 999,
        "meta_rev_at_epoch": 442,
        "meta_bstar": -0.00095875812,
        "meta_mean_motion_dot": -0.00058716,
        "meta_mean_motion_ddot": 0,
        "tle_line1": "1 66827U 25280G   25356.25002315 -.00058716  00000+0 -95876-3 0  9991",
        "tle_line2": "2 66827  69.9999 172.3543 0003159 272.2159 324.6394 15.52518850  4424"
      },
      "geometry": {
        "type": "Point",
        "coordinates": [
          177.48483868982555,
          17.541490251505067
        ]
      }
    },
    {
      "type": "Feature",
      "properties": {
        "norad_id": 66828,
        "name": "STARLINK-35982",
        "group": "last-30-days",
        "lat": 21.11450260388842,
        "lon": 178.95464941778243,
        "alt_km": 409.67058611968787,
        "timestamp": "2025-12-22T18:58:52.139343+00:00",
        "meta_object_name": "STARLINK-35982",
        "meta_object_id": "2025-280H",
        "meta_epoch": "2025-12-22T06:00:02.000160",
        "meta_mean_motion": 15.52517147,
        "meta_eccentricity": 0.00031927,
        "meta_inclination": 69.9999,
        "meta_ra_of_asc_node": 172.3498,
        "meta_arg_of_pericenter": 273.3495,
        "meta_mean_anomaly": 327.3383,
        "meta_ephemeris_type": 0,
        "meta_classification_type": "U",
        "meta_norad_cat_id": 66828,
        "meta_element_set_no": 999,
        "meta_rev_at_epoch": 442,
        "meta_bstar": -0.00093119193,
        "meta_mean_motion_dot": -0.00057042,
        "meta_mean_motion_ddot": 0,
        "tle_line1": "1 66828U 25280H   25356.25002315 -.00057042  00000+0 -93119-3 0  9991",
        "tle_line2": "2 66828  69.9999 172.3498 0003192 273.3495 327.3383 15.52517147  4422"
      },
      "geometry": {
        "type": "Point",
        "coordinates": [
          178.95464941778243,
          21.11450260388842
        ]
      }
    }
  ]
}